NORAD_CAT_ID,OBJECT_NAME,OBJECT_TYPE,EPOCH,MEAN_MOTION,ECCENTRICITY,INCLINATION,RA_OF_ASC_NODE,ARG_OF_PERICENTER,MEAN_ANOMALY,BSTAR,MEAN_MOTION_DOT,MEAN_MOTION_DDOT,TLE_LINE0,TLE_LINE1,TLE_LINE2,SEMIMAJOR_AXIS,PERIOD,APOGEE,PERIGEE,DECAYED
52638.0,STARLINK-3941,PAYLOAD,2023-10-29 22:01:16,15.08844966,0.0001475,53.2152,177.7689,84.2829,275.8331,0.00023551,3.463e-05,0.0,0 STARLINK-3941,1 52638U 22052AS  23302.91755617  .00003463  00000-0  23551-3 0  9991,2 52638  53.2152 177.7689 0001475  84.2829 275.8331 15.08844966 81705,6917.865,95.437,540.751,538.71,0.0
52638.0,STARLINK-3941,PAYLOAD,2023-10-30 20:16:41,15.08836031,0.000149,53.2169,173.605,76.5772,283.5386,5.4955e-06,-2.01e-06,0.0,0 STARLINK-3941,1 52638U 22052AS  23303.84492059 -.00000201  00000-0  54955-5 0  9994,2 52638  53.2169 173.6050 0001490  76.5772 283.5386 15.08836031 81416,6917.893,95.438,540.788,538.727,0.0
52638.0,STARLINK-3941,PAYLOAD,2023-10-30 21:52:04,15.08839763,0.0001661,53.2162,173.3077,80.9099,279.2081,1.0136e-05,-1.27e-06,0.0,0 STARLINK-3941,1 52638U 22052AS  23303.91115929 -.00000127  00000-0  10136-4 0  9999,2 52638  53.2162 173.3077 0001661  80.9099 279.2081 15.08839763 81853,6917.881,95.438,540.895,538.597,0.0
52638.0,STARLINK-3941,PAYLOAD,2023-10-31 08:59:46,15.08837855,0.0001716,53.2165,171.2241,89.4685,270.6504,2.1102e-05,4.8e-07,0.0,0 STARLINK-3941,1 52638U 22052AS  23304.37484050  .00000048  00000-0  21102-4 0  9990,2 52638  53.2165 171.2241 0001716  89.4685 270.6504 15.08837855 81925,6917.887,95.438,540.939,538.565,0.0
52638.0,STARLINK-3941,PAYLOAD,2023-10-31 21:42:51,15.08845493,0.0001556,53.2155,168.8452,93.866,266.251,0.00016897,2.403e-05,0.0,0 STARLINK-3941,1 52638U 22052AS  23304.90475819  .00002403  00000-0  16897-3 0  9993,2 52638  53.2155 168.8452 0001556  93.8660 266.2510 15.08845493 82009,6917.864,95.437,540.805,538.652,0.0
52638.0,STARLINK-3941,PAYLOAD,2023-11-01 00:53:37,15.08846956,0.0001601,53.2158,168.2503,95.1067,265.0108,0.00022048,3.223e-05,0.0,0 STARLINK-3941,1 52638U 22052AS  23305.03723782  .00003223  00000-0  22048-3 0  9999,2 52638  53.2158 168.2503 0001601  95.1067 265.0108 15.08846956 81598,6917.859,95.437,540.832,538.617,0.0
52638.0,STARLINK-3941,PAYLOAD,2023-11-01 21:33:38,15.08843111,0.0001341,53.2159,164.3838,94.5604,265.5541,0.00020416,2.963e-05,0.0,0 STARLINK-3941,1 52638U 22052AS  23305.89836004  .00002963  00000-0  20416-3 0  9992,2 52638  53.2159 164.3838 0001341  94.5604 265.5541 15.08843111 81729,6917.871,95.437,540.664,538.808,0.0
52638.0,STARLINK-3941,PAYLOAD,2023-11-02 07:05:57,15.08843448,0.0001316,53.2158,162.6009,90.7225,269.3918,0.00015523,2.184e-05,0.0,0 STARLINK-3941,1 52638U 22052AS  23306.29579991  .00002184  00000-0  15523-3 0  9994,2 52638  53.2158 162.6009 0001316  90.7225 269.3918 15.08843448 82216,6917.87,95.437,540.645,538.824,0.0
52638.0,STARLINK-3941,PAYLOAD,2023-11-02 21:24:25,15.0883809,0.00014,53.2166,159.9281,93.3593,266.7559,3.4511e-05,2.61e-06,0.0,0 STARLINK-3941,1 52638U 22052AS  23306.89196353  .00000261  00000-0  34511-4 0  9990,2 52638  53.2166 159.9281 0001400  93.3593 266.7559 15.08838090 81877,6917.886,95.438,540.72,538.783,0.0
52638.0,STARLINK-3941,PAYLOAD,2023-11-03 14:53:40,15.08840474,0.0001216,53.2154,156.6547,91.8844,268.2287,4.8613e-05,4.86e-06,0.0,0 STARLINK-3941,1 52638U 22052AS  23307.62060265  .00000486  00000-0  48613-4 0  9991,2 52638  53.2154 156.6547 0001216  91.8844 268.2287 15.08840474 82415,6917.879,95.438,540.585,538.903,0.0
52638.0,STARLINK-3941,PAYLOAD,2023-11-03 21:15:12,15.0884521,0.0001267,53.2157,155.4658,90.7379,269.3758,0.00012263,1.665e-05,0.0,0 STARLINK-3941,1 52638U 22052AS  23307.88556018  .00001665  00000-0  12263-3 0  9996,2 52638  53.2157 155.4658 0001267  90.7379 269.3758 15.08845210 82457,6917.864,95.437,540.606,538.853,0.0
52638.0,STARLINK-3941,PAYLOAD,2023-11-03 22:50:35,15.08847764,0.0001239,53.2157,155.1679,90.0665,270.0469,0.00015782,2.225e-05,0.0,0 STARLINK-3941,1 52638U 22052AS  23307.95179884  .00002225  00000-0  15782-3 0  9998,2 52638  53.2157 155.1679 0001239  90.0665 270.0469 15.08847764 82035,6917.857,95.437,540.579,538.865,0.0
52638.0,STARLINK-3941,PAYLOAD,2023-11-04 06:47:31,15.08839357,0.0001262,53.2157,153.6812,90.0961,270.0175,4.571e-05,4.4e-06,0.0,0 STARLINK-3941,1 52638U 22052AS  23308.28300305  .00000440  00000-0  45710-4 0  9991,2 52638  53.2157 153.6812 0001262  90.0961 270.0175 15.08839357 82080,6917.882,95.438,540.62,538.874,0.0
52638.0,STARLINK-3941,PAYLOAD,2023-11-04 21:05:59,15.08841357,0.0001236,53.2157,151.0047,87.3294,272.7839,9.4144e-05,1.211e-05,0.0,0 STARLINK-3941,1 52638U 22052AS  23308.87916417  .00001211  00000-0  94144-4 0  9995,2 52638  53.2157 151.0047 0001236  87.3294 272.7839 15.08841357 82608,6917.876,95.437,540.596,538.886,0.0
52638.0,STARLINK-3941,PAYLOAD,2023-11-05 12:59:50,15.08845752,0.0001238,53.2154,148.0312,86.3076,273.8057,0.0001662,2.359e-05,0.0,0 STARLINK-3941,1 52638U 22052AS  23309.54156096  .00002359  00000-0  16620-3 0  9995,2 52638  53.2154 148.0312 0001238  86.3076 273.8057 15.08845752 82703,6917.863,95.437,540.584,538.871,0.0
52638.0,STARLINK-3941,PAYLOAD,2023-11-05 17:46:00,15.08847491,0.0001272,53.2157,147.1394,87.7031,272.4107,0.00022167,3.242e-05,0.0,0 STARLINK-3941,1 52638U 22052AS  23309.74027999  .00003242  00000-0  22167-3 0  9991,2 52638  53.2157 147.1394 0001272  87.7031 272.4107 15.08847491 82309,6917.857,95.437,540.602,538.843,0.0
52638.0,STARLINK-3941,PAYLOAD,2023-11-05 20:56:46,15.08861332,0.0001442,53.2158,146.5449,85.2967,274.8189,0.00047245,7.243e-05,0.0,0 STARLINK-3941,1 52638U 22052AS  23309.87275595  .00007243  00000-0  47245-3 0  9991,2 52638  53.2158 146.5449 0001442  85.2967 274.8189 15.08861332 82759,6917.815,95.436,540.678,538.683,0.0
52638.0,STARLINK-3941,PAYLOAD,2023-11-06 12:50:37,15.08855375,0.0001389,53.2164,143.571,94.6184,265.4967,0.00031247,4.691e-05,0.0,0 STARLINK-3941,1 52638U 22052AS  23310.53515395  .00004691  00000-0  31247-3 0  9990,2 52638  53.2164 143.5710 0001389  94.6184 265.4967 15.08855375 82850,6917.833,95.437,540.659,538.738,0.0
52638.0,STARLINK-3941,PAYLOAD,2023-11-06 19:12:09,15.08854636,0.0001298,53.215,142.3814,91.0265,269.0876,0.00024308,3.584e-05,0.0,0 STARLINK-3941,1 52638U 22052AS  23310.80011151  .00003584  00000-0  24308-3 0  9991,2 52638  53.2150 142.3814 0001298  91.0265 269.0876 15.08854636 82462,6917.836,95.437,540.599,538.803,0.0
52638.0,STARLINK-3941,PAYLOAD,2023-11-07 12:41:24,15.08835091,0.0001441,53.2153,139.1103,85.0082,275.1074,-8.6154e-05,-1.659e-05,0.0,0 STARLINK-3941,1 52638U 22052AS  23311.52875947 -.00001659  00000-0 -86154-4 0  9993,2 52638  53.2153 139.1103 0001441  85.0082 275.1074 15.08835091 83003,6917.895,95.438,540.757,538.764,0.0
52638.0,STARLINK-3941,PAYLOAD,2023-11-07 19:02:58,15.08820833,0.0001445,53.2164,137.921,78.8479,281.2675,-0.00036675,-6.117e-05,0.0,0 STARLINK-3941,1 52638U 22052AS  23311.79372760 -.00006117  00000-0 -36675-3 0  9993,2 52638  53.2164 137.9210 0001445  78.8479 281.2675 15.08820833 82613,6917.939,95.439,540.804,538.804,0.0
52638.0,STARLINK-3941,PAYLOAD,2023-11-08 12:32:13,15.088182,0.0001369,53.215,134.6493,79.0015,281.1131,4.1994e-05,3.8e-06,0.0,0 STARLINK-3941,1 52638U 22052AS  23312.52237956  .00000380  00000-0  41994-4 0  9997,2 52638  53.2150 134.6493 0001369  79.0015 281.1131 15.08818200 83150,6917.947,95.439,540.759,538.865,0.0
52638.0,STARLINK-3941,PAYLOAD,2023-11-08 18:53:46,15.08824419,0.00014,53.2155,133.4598,80.429,279.686,0.00028351,4.225e-05,0.0,0 STARLINK-3941,1 52638U 22052AS  23312.78734223  .00004225  00000-0  28351-3 0  9997,2 52638  53.2155 133.4598 0001400  80.4290 279.6860 15.08824419 83199,6917.928,95.439,540.762,538.825,0.0
52638.0,STARLINK-3941,PAYLOAD,2023-11-09 18:44:33,15.08843807,0.0001456,53.216,128.999,78.2864,281.8292,0.00057325,8.848e-05,0.0,0 STARLINK-3941,1 52638U 22052AS  23313.78094563  .00008848  00000-0  57325-3 0  9992,2 52638  53.2160 128.9990 0001456  78.2864 281.8292 15.08843807 83346,6917.869,95.437,540.741,538.727,0.0
52638.0,STARLINK-3941,PAYLOAD,2023-11-10 13:49:10,15.08862434,0.0001464,53.2156,125.4304,78.32,281.7956,0.00055037,8.487e-05,0.0,0 STARLINK-3941,1 52638U 22052AS  23314.57581576  .00008487  00000-0  55037-3 0  9992,2 52638  53.2156 125.4304 0001464  78.3200 281.7956 15.08862434 83462,6917.812,95.436,540.69,538.664,0.0
52638.0,STARLINK-3941,PAYLOAD,2023-11-10 18:35:19,15.08868294,0.0001457,53.2156,124.5383,77.6123,282.5032,0.00062676,9.709e-05,0.0,0 STARLINK-3941,1 52638U 22052AS  23314.77453196  .00009709  00000-0  62676-3 0  9995,2 52638  53.2156 124.5383 0001457  77.6123 282.5032 15.08868294 83494,6917.794,95.436,540.667,538.651,0.0
52638.0,STARLINK-3941,PAYLOAD,2023-11-11 12:04:33,15.08852077,0.0001506,53.2158,121.2661,71.9431,288.1725,7.4871e-05,9.04e-06,0.0,0 STARLINK-3941,1 52638U 22052AS  23315.50317016  .00000904  00000-0  74871-4 0  9996,2 52638  53.2158 121.2661 0001506  71.9431 288.1725 15.08852077 83171,6917.843,95.437,540.75,538.667,0.0
52638.0,STARLINK-3941,PAYLOAD,2023-11-11 18:26:06,15.08852285,0.0001482,53.2155,120.0771,74.6749,285.4407,9.0838e-05,1.158e-05,0.0,0 STARLINK-3941,1 52638U 22052AS  23315.76812881  .00001158  00000-0  90838-4 0  9997,2 52638  53.2155 120.0771 0001482  74.6749 285.4407 15.08852285 83642,6917.843,95.437,540.733,538.683,0.0
52638.0,STARLINK-3941,PAYLOAD,2023-11-12 03:58:25,15.08843781,0.0001412,53.2152,118.2938,84.2489,275.8664,-6.6502e-05,-1.346e-05,0.0,0 STARLINK-3941,1 52638U 22052AS  23316.16556905 -.00001346  00000-0 -66502-4 0  9996,2 52638  53.2152 118.2938 0001412  84.2489 275.8664 15.08843781 83272,6917.869,95.437,540.711,538.757,0.0
52638.0,STARLINK-3941,PAYLOAD,2023-11-12 10:19:57,15.08843694,0.0001412,53.2152,117.1045,84.3434,275.7719,-3.7073e-05,-8.78e-06,0.0,0 STARLINK-3941,1 52638U 22052AS  23316.43052938 -.00000878  00000-0 -37073-4 0  9993,2 52638  53.2152 117.1045 0001412  84.3434 275.7719 15.08843694 83745,6917.869,95.437,540.711,538.757,0.0
